<?xml version="1.0" encoding="UTF-8"?>
<kml xmlns="http://www.opengis.net/kml/2.2" xmlns:gx="http://www.google.com/kml/ext/2.2" xmlns:kml="http://www.opengis.net/kml/2.2" xmlns:atom="http://www.w3.org/2005/Atom">
<Document>
	<name>Croqui_Chacara_Lotes_41 e 42.kml</name>
	<Schema name="ATP" id="S_ATP_D">
		<SimpleField type="long" name="ID">
			<displayName>&lt;b&gt;ID&lt;/b&gt;</displayName>
		</SimpleField>
		<SimpleField type="double" name="AREA_HA">
			<displayName>&lt;b&gt;AREA_HA&lt;/b&gt;</displayName>
		</SimpleField>
	</Schema>
	<Style id="falseColor">
		<BalloonStyle>
			<text><![CDATA[<table border="0">
  <tr><td><b>ID</b></td><td>$[ATP/ID]</td></tr>
  <tr><td><b>AREA_HA</b></td><td>$[ATP/AREA_HA]</td></tr>
</table>
]]></text>
		</BalloonStyle>
		<LineStyle>
			<color>ff0000ff</color>
			<width>4</width>
		</LineStyle>
		<PolyStyle>
			<colorMode>random</colorMode>
			<fill>0</fill>
		</PolyStyle>
	</Style>
	<StyleMap id="falseColor0">
		<Pair>
			<key>normal</key>
			<styleUrl>#falseColor</styleUrl>
		</Pair>
		<Pair>
			<key>highlight</key>
			<styleUrl>#falseColor1</styleUrl>
		</Pair>
	</StyleMap>
	<Style id="falseColor1">
		<BalloonStyle>
			<text><![CDATA[<table border="0">
  <tr><td><b>ID</b></td><td>$[ATP/ID]</td></tr>
  <tr><td><b>AREA_HA</b></td><td>$[ATP/AREA_HA]</td></tr>
</table>
]]></text>
		</BalloonStyle>
		<LineStyle>
			<color>ff0000ff</color>
			<width>4</width>
		</LineStyle>
		<PolyStyle>
			<colorMode>random</colorMode>
			<fill>0</fill>
		</PolyStyle>
	</Style>
	<Style id="inline">
		<LineStyle>
			<color>ff0055ff</color>
			<width>3</width>
		</LineStyle>
		<PolyStyle>
			<fill>0</fill>
		</PolyStyle>
	</Style>
	<Style id="inline0">
		<LineStyle>
			<color>ff0055ff</color>
			<width>3</width>
		</LineStyle>
		<PolyStyle>
			<fill>0</fill>
		</PolyStyle>
	</Style>
	<StyleMap id="inline2">
		<Pair>
			<key>normal</key>
			<styleUrl>#inline9</styleUrl>
		</Pair>
		<Pair>
			<key>highlight</key>
			<styleUrl>#inline5</styleUrl>
		</Pair>
	</StyleMap>
	<Style id="inline5">
		<LineStyle>
			<color>ff0055ff</color>
			<width>3</width>
		</LineStyle>
		<PolyStyle>
			<fill>0</fill>
		</PolyStyle>
	</Style>
	<Style id="inline6">
		<LineStyle>
			<color>ff0055ff</color>
			<width>3</width>
		</LineStyle>
		<PolyStyle>
			<fill>0</fill>
		</PolyStyle>
	</Style>
	<Style id="inline7">
		<LineStyle>
			<color>ff0055ff</color>
			<width>3</width>
		</LineStyle>
		<PolyStyle>
			<fill>0</fill>
		</PolyStyle>
	</Style>
	<StyleMap id="inline8">
		<Pair>
			<key>normal</key>
			<styleUrl>#inline</styleUrl>
		</Pair>
		<Pair>
			<key>highlight</key>
			<styleUrl>#inline11</styleUrl>
		</Pair>
	</StyleMap>
	<Style id="inline9">
		<LineStyle>
			<color>ff0055ff</color>
			<width>3</width>
		</LineStyle>
		<PolyStyle>
			<fill>0</fill>
		</PolyStyle>
	</Style>
	<StyleMap id="inline10">
		<Pair>
			<key>normal</key>
			<styleUrl>#inline7</styleUrl>
		</Pair>
		<Pair>
			<key>highlight</key>
			<styleUrl>#inline6</styleUrl>
		</Pair>
	</StyleMap>
	<Style id="inline11">
		<LineStyle>
			<color>ff0055ff</color>
			<width>3</width>
		</LineStyle>
		<PolyStyle>
			<fill>0</fill>
		</PolyStyle>
	</Style>
	<Style id="inline00">
		<LineStyle>
			<color>ff0055ff</color>
			<width>3</width>
		</LineStyle>
		<PolyStyle>
			<fill>0</fill>
		</PolyStyle>
	</Style>
	<Style id="inline1">
		<LineStyle>
			<color>ff0055ff</color>
			<width>3</width>
		</LineStyle>
		<PolyStyle>
			<fill>0</fill>
		</PolyStyle>
	</Style>
	<Style id="inline20">
		<LineStyle>
			<color>ff0055ff</color>
			<width>3</width>
		</LineStyle>
		<PolyStyle>
			<fill>0</fill>
		</PolyStyle>
	</Style>
	<StyleMap id="inline3">
		<Pair>
			<key>normal</key>
			<styleUrl>#inline00</styleUrl>
		</Pair>
		<Pair>
			<key>highlight</key>
			<styleUrl>#inline20</styleUrl>
		</Pair>
	</StyleMap>
	<StyleMap id="inline4">
		<Pair>
			<key>normal</key>
			<styleUrl>#inline1</styleUrl>
		</Pair>
		<Pair>
			<key>highlight</key>
			<styleUrl>#inline0</styleUrl>
		</Pair>
	</StyleMap>
	<StyleMap id="m_ylw-pushpin">
		<Pair>
			<key>normal</key>
			<styleUrl>#s_ylw-pushpin</styleUrl>
		</Pair>
		<Pair>
			<key>highlight</key>
			<styleUrl>#s_ylw-pushpin_hl</styleUrl>
		</Pair>
	</StyleMap>
	<StyleMap id="msn_ylw-pushpin">
		<Pair>
			<key>normal</key>
			<styleUrl>#sn_ylw-pushpin</styleUrl>
		</Pair>
		<Pair>
			<key>highlight</key>
			<styleUrl>#sh_ylw-pushpin</styleUrl>
		</Pair>
	</StyleMap>
	<Style id="s_ylw-pushpin">
		<IconStyle>
			<scale>1.1</scale>
			<Icon>
				<href>http://maps.google.com/mapfiles/kml/pushpin/ylw-pushpin.png</href>
			</Icon>
			<hotSpot x="20" y="2" xunits="pixels" yunits="pixels"/>
		</IconStyle>
	</Style>
	<Style id="s_ylw-pushpin_hl">
		<IconStyle>
			<scale>1.3</scale>
			<Icon>
				<href>http://maps.google.com/mapfiles/kml/pushpin/ylw-pushpin.png</href>
			</Icon>
			<hotSpot x="20" y="2" xunits="pixels" yunits="pixels"/>
		</IconStyle>
	</Style>
	<Style id="sh_ylw-pushpin">
		<IconStyle>
			<scale>0.945455</scale>
			<Icon>
				<href>http://maps.google.com/mapfiles/kml/pushpin/ylw-pushpin.png</href>
			</Icon>
			<hotSpot x="20" y="2" xunits="pixels" yunits="pixels"/>
		</IconStyle>
		<LabelStyle>
			<scale>0.8</scale>
		</LabelStyle>
	</Style>
	<Style id="sn_ylw-pushpin">
		<IconStyle>
			<scale>0.8</scale>
			<Icon>
				<href>http://maps.google.com/mapfiles/kml/pushpin/ylw-pushpin.png</href>
			</Icon>
			<hotSpot x="20" y="2" xunits="pixels" yunits="pixels"/>
		</IconStyle>
		<LabelStyle>
			<scale>0.8</scale>
		</LabelStyle>
	</Style>
	<Folder>
		<name>Meus lugares</name>
		<open>1</open>
		<Style>
			<ListStyle>
				<listItemType>check</listItemType>
				<ItemIcon>
					<state>open</state>
					<href>:/mysavedplaces_open.png</href>
				</ItemIcon>
				<ItemIcon>
					<state>closed</state>
					<href>:/mysavedplaces_closed.png</href>
				</ItemIcon>
				<bgColor>00ffffff</bgColor>
				<maxSnippetLines>2</maxSnippetLines>
			</ListStyle>
		</Style>
		<Placemark>
			<styleUrl>#falseColor0</styleUrl>
			<ExtendedData>
				<SchemaData schemaUrl="#S_ATP_D">
					<SimpleData name="ID">323728</SimpleData>
					<SimpleData name="AREA_HA">20.0189</SimpleData>
				</SchemaData>
			</ExtendedData>
			<Polygon>
				<outerBoundaryIs>
					<LinearRing>
						<coordinates>
							-52.20581486999993,-12.58004792999997,0 -52.20584794000001,-12.58186476999992,0 -52.20338465999992,-12.58187034999992,0 -52.20119417000001,-12.58185811999999,0 -52.20120376000001,-12.58006826999997,0 -52.20120022999993,-12.57930976,0 -52.20119534999997,-12.57826007,0 -52.20348877999992,-12.57825685,0 -52.20578220999999,-12.57825364000001,0 -52.20581486999993,-12.58004792999997,0 
						</coordinates>
					</LinearRing>
				</outerBoundaryIs>
			</Polygon>
		</Placemark>
		<Placemark>
			<name>12°36&apos;1.00&quot;S,  52°11&apos;24.55&quot;O</name>
			<LookAt>
				<longitude>-52.18878490618862</longitude>
				<latitude>-12.59844803732908</latitude>
				<altitude>0</altitude>
				<heading>-58.75947675699595</heading>
				<tilt>13.181211377171</tilt>
				<range>733.0913114382714</range>
				<gx:altitudeMode>relativeToSeaFloor</gx:altitudeMode>
			</LookAt>
			<styleUrl>#msn_ylw-pushpin</styleUrl>
			<Point>
				<gx:drawOrder>1</gx:drawOrder>
				<coordinates>-52.19015277777778,-12.60027777777778,0</coordinates>
			</Point>
		</Placemark>
		<Placemark>
			<name>12°35&apos;55.85&quot;S,  52°11&apos;47.17&quot;O</name>
			<Camera>
				<longitude>-52.19494093124153</longitude>
				<latitude>-12.5983210140885</latitude>
				<altitude>275.1778454918131</altitude>
				<heading>-95.75096890884069</heading>
				<tilt>28.71831372349934</tilt>
				<roll>2.005842275283737</roll>
				<gx:altitudeMode>relativeToSeaFloor</gx:altitudeMode>
			</Camera>
			<styleUrl>#msn_ylw-pushpin</styleUrl>
			<Point>
				<gx:drawOrder>1</gx:drawOrder>
				<coordinates>-52.1964361111111,-12.59884722222222,0</coordinates>
			</Point>
		</Placemark>
		<Placemark>
			<name>Medida do caminho</name>
			<styleUrl>#inline4</styleUrl>
			<LineString>
				<tessellate>1</tessellate>
				<coordinates>
					-52.19643481023364,-12.59884637271803,0 -52.19648485360629,-12.59881593897473,0 -52.19649552674743,-12.59872926341851,0 -52.19649453931002,-12.59862440829841,0 -52.19649699707731,-12.59839450704086,0 -52.19652104822238,-12.59670233793312,0 -52.19652521886427,-12.59319661610344,0 -52.19655157639196,-12.58798144977168,0 -52.19657564625245,-12.58421073012103,0 -52.1965868609871,-12.58374114520602,0 
				</coordinates>
			</LineString>
		</Placemark>
		<Placemark>
			<name>Medida do caminho</name>
			<styleUrl>#inline3</styleUrl>
			<LineString>
				<tessellate>1</tessellate>
				<coordinates>
					-52.19015413718608,-12.60027667456931,0 -52.19168457837803,-12.60000168342818,0 -52.19273235588257,-12.59981990932805,0 -52.19376738265466,-12.59959802812451,0 -52.19477291938824,-12.59938963306625,0 -52.19488122567208,-12.59932545778758,0 -52.19494393372431,-12.59925943183009,0 -52.19502653666636,-12.59917393680412,0 -52.19515959759713,-12.59911453246125,0 -52.19522433500155,-12.59910249455611,0 -52.19530785048036,-12.59910566780984,0 -52.19587379524356,-12.59894950237793,0 -52.19637262655641,-12.59885640611334,0 -52.19643796015035,-12.59884736593401,0 
				</coordinates>
			</LineString>
		</Placemark>
		<Placemark>
			<name> 12°35&apos;1.50&quot;S,  52°11&apos;47.71&quot;O</name>
			<LookAt>
				<longitude>-52.19647107017116</longitude>
				<latitude>-12.58299825378156</latitude>
				<altitude>0</altitude>
				<heading>0.6755740017784039</heading>
				<tilt>30.00216634153333</tilt>
				<range>482.2559307445231</range>
				<gx:altitudeMode>relativeToSeaFloor</gx:altitudeMode>
			</LookAt>
			<styleUrl>#m_ylw-pushpin</styleUrl>
			<Point>
				<gx:drawOrder>1</gx:drawOrder>
				<coordinates>-52.1965861111111,-12.58375,0</coordinates>
			</Point>
		</Placemark>
		<Placemark>
			<name>Medida do caminho</name>
			<styleUrl>#inline2</styleUrl>
			<LineString>
				<tessellate>1</tessellate>
				<coordinates>
					-52.19658758149322,-12.58374870592307,0 -52.1983358984935,-12.58374972238597,0 -52.20099650585403,-12.5837533091859,0 -52.20586409232596,-12.58375067648432,0 
				</coordinates>
			</LineString>
		</Placemark>
		<Placemark>
			<name> 12°35&apos;1.51&quot;S,  52°12&apos;21.09&quot;O</name>
			<Camera>
				<longitude>-52.20438463772651</longitude>
				<latitude>-12.58286807063666</latitude>
				<altitude>450.7985567420918</altitude>
				<heading>70.93320080650858</heading>
				<tilt>0.03829814683228325</tilt>
				<roll>87.27898762300954</roll>
				<gx:altitudeMode>relativeToSeaFloor</gx:altitudeMode>
			</Camera>
			<styleUrl>#m_ylw-pushpin</styleUrl>
			<Point>
				<gx:drawOrder>1</gx:drawOrder>
				<coordinates>-52.20585833333334,-12.58375277777778,0</coordinates>
			</Point>
		</Placemark>
		<Placemark>
			<name>Medida do caminho</name>
			<styleUrl>#inline10</styleUrl>
			<LineString>
				<tessellate>1</tessellate>
				<coordinates>
					-52.20585796954267,-12.58374892436876,0 -52.20588431200603,-12.5820458949487,0 -52.20586616256903,-12.58116398025472,0 
				</coordinates>
			</LineString>
		</Placemark>
		<Placemark>
			<name> 12°34&apos;52.21&quot;S,  52°12&apos;21.12&quot;O</name>
			<LookAt>
				<longitude>-52.20516252205371</longitude>
				<latitude>-12.58084994704544</latitude>
				<altitude>0</altitude>
				<heading>1.929509229339203</heading>
				<tilt>7.00862341301224</tilt>
				<range>311.0490679078256</range>
				<gx:altitudeMode>relativeToSeaFloor</gx:altitudeMode>
			</LookAt>
			<styleUrl>#m_ylw-pushpin</styleUrl>
			<Point>
				<gx:drawOrder>1</gx:drawOrder>
				<coordinates>-52.20586666666667,-12.58116944444444,0</coordinates>
			</Point>
		</Placemark>
		<Placemark>
			<name>Medida do caminho</name>
			<styleUrl>#inline8</styleUrl>
			<LineString>
				<tessellate>1</tessellate>
				<coordinates>
					-52.20586681547022,-12.58116645867688,0 -52.20579647856491,-12.5811325135633,0 -52.20571874747328,-12.58111469046327,0 -52.20562314608762,-12.58108970860443,0 -52.20552840605674,-12.5810844571157,0 -52.20543506493765,-12.58108046424258,0 -52.20536180285207,-12.58110330653085,0 
				</coordinates>
			</LineString>
		</Placemark>
		<Placemark>
			<name> 12°34&apos;51.99&quot;S,  52°12&apos;19.31&quot;O</name>
			<Camera>
				<longitude>-52.20522840982873</longitude>
				<latitude>-12.58100676911124</latitude>
				<altitude>190.552887221139</altitude>
				<heading>91.62417130424588</heading>
				<tilt>0.0381536367136651</tilt>
				<roll>89.16556769810239</roll>
				<gx:altitudeMode>relativeToSeaFloor</gx:altitudeMode>
			</Camera>
			<styleUrl>#m_ylw-pushpin</styleUrl>
			<Point>
				<gx:drawOrder>1</gx:drawOrder>
				<coordinates>-52.20536388888889,-12.58110833333333,0</coordinates>
			</Point>
		</Placemark>
		<atom:link rel="app" href="https://www.google.com/earth/about/versions/#earth-pro" title="Google Earth Pro 7.3.7.1094"></atom:link>
	</Folder>
</Document>
</kml>
